STARLINK-31070          
1 58639U 23203X   25314.53385527 -.00010978  00000+0 -38974-3 0  9994
2 58639  42.9996  20.4039 0001578 258.7214 101.3460 15.27599954105333
STARLINK-31090          
1 58640U 23203Y   25314.44617265 -.00000796  00000+0 -19375-4 0  9995
2 58640  43.0010  12.8236 0001853 266.3473  93.7167 15.27587258105428
STARLINK-31113          
1 58668U 23211B   25314.59174367  .00010970  00000+0  40745-3 0  9998
2 58668  42.9964  37.5803 0000858 284.3944  75.6813 15.27588113104253
STARLINK-31128          
1 58669U 23211C   25314.54305771  .00004008  00000+0  15505-3 0  9990
2 58669  43.0013  38.0752 0001230 275.2801  84.7910 15.27591259104249
STARLINK-31083          
1 58670U 23211D   25314.58788981  .00000053  00000+0  11446-4 0  9991
2 58670  42.9974  37.5519 0001074 282.3594  77.7137 15.27579577104257
STARLINK-30828          
1 58671U 23211E   25314.29178592  .00000400  00000+0  24038-4 0  9998
2 58671  43.0028  39.6239 0000848 253.6487 106.4272 15.27580796104202
STARLINK-31104          
1 58672U 23211F   25314.58403838  .00002982  00000+0  11784-3 0  9995
2 58672  43.0014  37.5252 0000984 271.2134  88.8605 15.27580354105536
STARLINK-31131          
1 58673U 23211G   25314.59317113  .00011092  00000+0  41166-3 0  9996
2 58673  43.0016  27.0717 0000683 256.3654 103.7122 15.27606302105652
STARLINK-31124          
1 58674U 23211H   25314.72636657  .00056647  00000+0  20494-2 0  9994
2 58674  43.0003  36.8723 0001189 273.2326  86.8390 15.27625630104270
STARLINK-31126          
1 58675U 23211J   25314.64556260  .00002717  00000+0  10820-3 0  9999
2 58675  43.0003  37.1165 0001155 257.0913 102.9810 15.27581665104265
STARLINK-31066          
1 58676U 23211K   25314.92992338  .00000596  00000+0  59201-4 0  9991
2 58676  43.0029 159.9914 0001184 262.1840  97.8868 15.02532581104123
STARLINK-31058          
1 58677U 23211L   25314.59816770  .00002021  00000+0  82943-4 0  9994
2 58677  42.9993  37.6298 0001018 279.9594  80.1143 15.27583031104255
STARLINK-31125          
1 58678U 23211M   25314.29437823 -.00001515  00000+0 -45558-4 0  9990
2 58678  43.0057  39.6429 0000815 269.1066  90.9692 15.27563102105375
STARLINK-31110          
1 58679U 23211N   25314.27509813  .00004405  00000+0  16957-3 0  9997
2 58679  42.9968  39.5044 0001028 286.1255  73.9483 15.27561586104207
STARLINK-31112          
1 58680U 23211P   25314.54434867  .00005486  00000+0  20868-3 0  9991
2 58680  43.0030  38.0849 0001851 281.8586  78.2058 15.27589981105421
STARLINK-31147          
1 58681U 23211Q   25314.23283912  .00000804  00000+0  38731-4 0  9999
2 58681  43.0013  40.0481 0000975 352.5510   7.5327 15.27583617104194
