[{"OBJECT_NAME":"STARLINK-31070","OBJECT_ID":"2023-203X","EPOCH":"2025-11-10T12:48:45.095328","MEAN_MOTION":15.27599954,"ECCENTRICITY":0.00015785,"INCLINATION":42.9996,"RA_OF_ASC_NODE":20.4039,"ARG_OF_PERICENTER":258.7214,"MEAN_ANOMALY":101.346,"EPHEMERIS_TYPE":0,"CLASSIFICATION_TYPE":"U","NORAD_CAT_ID":58639,"ELEMENT_SET_NO":999,"REV_AT_EPOCH":10533,"BSTAR":-0.00038974397,"MEAN_MOTION_DOT":-0.00010978,"MEAN_MOTION_DDOT":0},{"OBJECT_NAME":"STARLINK-31090","OBJECT_ID":"2023-203Y","EPOCH":"2025-11-10T10:42:29.316960","MEAN_MOTION":15.27587258,"ECCENTRICITY":0.00018534,"INCLINATION":43.001,"RA_OF_ASC_NODE":12.8236,"ARG_OF_PERICENTER":266.3473,"MEAN_ANOMALY":93.7167,"EPHEMERIS_TYPE":0,"CLASSIFICATION_TYPE":"U","NORAD_CAT_ID":58640,"ELEMENT_SET_NO":999,"REV_AT_EPOCH":10542,"BSTAR":-1.9374548e-5,"MEAN_MOTION_DOT":-7.96e-6,"MEAN_MOTION_DDOT":0},{"OBJECT_NAME":"STARLINK-31113","OBJECT_ID":"2023-211B","EPOCH":"2025-11-10T14:12:06.653088","MEAN_MOTION":15.27588113,"ECCENTRICITY":8.582e-5,"INCLINATION":42.9964,"RA_OF_ASC_NODE":37.5803,"ARG_OF_PERICENTER":284.3944,"MEAN_ANOMALY":75.6813,"EPHEMERIS_TYPE":0,"CLASSIFICATION_TYPE":"U","NORAD_CAT_ID":58668,"ELEMENT_SET_NO":999,"REV_AT_EPOCH":10425,"BSTAR":0.00040744768,"MEAN_MOTION_DOT":0.0001097,"MEAN_MOTION_DDOT":0},{"OBJECT_NAME":"STARLINK-31128","OBJECT_ID":"2023-211C","EPOCH":"2025-11-10T13:02:00.186144","MEAN_MOTION":15.27591259,"ECCENTRICITY":0.00012307,"INCLINATION":43.0013,"RA_OF_ASC_NODE":38.0752,"ARG_OF_PERICENTER":275.2801,"MEAN_ANOMALY":84.791,"EPHEMERIS_TYPE":0,"CLASSIFICATION_TYPE":"U","NORAD_CAT_ID":58669,"ELEMENT_SET_NO":999,"REV_AT_EPOCH":10424,"BSTAR":0.00015504882,"MEAN_MOTION_DOT":4.008e-5,"MEAN_MOTION_DDOT":0},{"OBJECT_NAME":"STARLINK-31083","OBJECT_ID":"2023-211D","EPOCH":"2025-11-10T14:06:33.679584","MEAN_MOTION":15.27579577,"ECCENTRICITY":0.00010742,"INCLINATION":42.9974,"RA_OF_ASC_NODE":37.5519,"ARG_OF_PERICENTER":282.3594,"MEAN_ANOMALY":77.7137,"EPHEMERIS_TYPE":0,"CLASSIFICATION_TYPE":"U","NORAD_CAT_ID":58670,"ELEMENT_SET_NO":999,"REV_AT_EPOCH":10425,"BSTAR":1.1445704e-5,"MEAN_MOTION_DOT":5.3e-7,"MEAN_MOTION_DDOT":0},{"OBJECT_NAME":"STARLINK-30828","OBJECT_ID":"2023-211E","EPOCH":"2025-11-10T07:00:10.303488","MEAN_MOTION":15.27580796,"ECCENTRICITY":8.487e-5,"INCLINATION":43.0028,"RA_OF_ASC_NODE":39.6239,"ARG_OF_PERICENTER":253.6487,"MEAN_ANOMALY":106.4272,"EPHEMERIS_TYPE":0,"CLASSIFICATION_TYPE":"U","NORAD_CAT_ID":58671,"ELEMENT_SET_NO":999,"REV_AT_EPOCH":10420,"BSTAR":2.4038186e-5,"MEAN_MOTION_DOT":4.0e-6,"MEAN_MOTION_DDOT":0},{"OBJECT_NAME":"STARLINK-31104","OBJECT_ID":"2023-211F","EPOCH":"2025-11-10T14:01:00.916032","MEAN_MOTION":15.27580354,"ECCENTRICITY":9.843e-5,"INCLINATION":43.0014,"RA_OF_ASC_NODE":37.5252,"ARG_OF_PERICENTER":271.2134,"MEAN_ANOMALY":88.8605,"EPHEMERIS_TYPE":0,"CLASSIFICATION_TYPE":"U","NORAD_CAT_ID":58672,"ELEMENT_SET_NO":999,"REV_AT_EPOCH":10553,"BSTAR":0.00011783726,"MEAN_MOTION_DOT":2.982e-5,"MEAN_MOTION_DDOT":0},{"OBJECT_NAME":"STARLINK-31131","OBJECT_ID":"2023-211G","EPOCH":"2025-11-10T14:14:09.985632","MEAN_MOTION":15.27606302,"ECCENTRICITY":6.836e-5,"INCLINATION":43.0016,"RA_OF_ASC_NODE":27.0717,"ARG_OF_PERICENTER":256.3654,"MEAN_ANOMALY":103.7122,"EPHEMERIS_TYPE":0,"CLASSIFICATION_TYPE":"U","NORAD_CAT_ID":58673,"ELEMENT_SET_NO":999,"REV_AT_EPOCH":10565,"BSTAR":0.00041165678,"MEAN_MOTION_DOT":0.00011092,"MEAN_MOTION_DDOT":0},{"OBJECT_NAME":"STARLINK-31124","OBJECT_ID":"2023-211H","EPOCH":"2025-11-10T17:25:58.071648","MEAN_MOTION":15.2762563,"ECCENTRICITY":0.0001189,"INCLINATION":43.0003,"RA_OF_ASC_NODE":36.8723,"ARG_OF_PERICENTER":273.2326,"MEAN_ANOMALY":86.839,"EPHEMERIS_TYPE":0,"CLASSIFICATION_TYPE":"U","NORAD_CAT_ID":58674,"ELEMENT_SET_NO":999,"REV_AT_EPOCH":10427,"BSTAR":0.0020494443,"MEAN_MOTION_DOT":0.00056647,"MEAN_MOTION_DDOT":0},{"OBJECT_NAME":"STARLINK-31126","OBJECT_ID":"2023-211J","EPOCH":"2025-11-10T15:29:36.608640","MEAN_MOTION":15.27581665,"ECCENTRICITY":0.0001155,"INCLINATION":43.0003,"RA_OF_ASC_NODE":37.1165,"ARG_OF_PERICENTER":257.0913,"MEAN_ANOMALY":102.981,"EPHEMERIS_TYPE":0,"CLASSIFICATION_TYPE":"U","NORAD_CAT_ID":58675,"ELEMENT_SET_NO":999,"REV_AT_EPOCH":10426,"BSTAR":0.00010819875,"MEAN_MOTION_DOT":2.717e-5,"MEAN_MOTION_DDOT":0},{"OBJECT_NAME":"STARLINK-31066","OBJECT_ID":"2023-211K","EPOCH":"2025-11-10T22:19:05.380032","MEAN_MOTION":15.02532581,"ECCENTRICITY":0.00011841,"INCLINATION":43.0029,"RA_OF_ASC_NODE":159.9914,"ARG_OF_PERICENTER":262.184,"MEAN_ANOMALY":97.8868,"EPHEMERIS_TYPE":0,"CLASSIFICATION_TYPE":"U","NORAD_CAT_ID":58676,"ELEMENT_SET_NO":999,"REV_AT_EPOCH":10412,"BSTAR":5.9200833e-5,"MEAN_MOTION_DOT":5.96e-6,"MEAN_MOTION_DDOT":0},{"OBJECT_NAME":"STARLINK-31058","OBJECT_ID":"2023-211L","EPOCH":"2025-11-10T14:21:21.689280","MEAN_MOTION":15.27583031,"ECCENTRICITY":0.0001018,"INCLINATION":42.9993,"RA_OF_ASC_NODE":37.6298,"ARG_OF_PERICENTER":279.9594,"MEAN_ANOMALY":80.1143,"EPHEMERIS_TYPE":0,"CLASSIFICATION_TYPE":"U","NORAD_CAT_ID":58677,"ELEMENT_SET_NO":999,"REV_AT_EPOCH":10425,"BSTAR":8.2942633e-5,"MEAN_MOTION_DOT":2.021e-5,"MEAN_MOTION_DDOT":0},{"OBJECT_NAME":"STARLINK-31125","OBJECT_ID":"2023-211M","EPOCH":"2025-11-10T07:03:54.279072","MEAN_MOTION":15.27563102,"ECCENTRICITY":8.155e-5,"INCLINATION":43.0057,"RA_OF_ASC_NODE":39.6429,"ARG_OF_PERICENTER":269.1066,"MEAN_ANOMALY":90.9692,"EPHEMERIS_TYPE":0,"CLASSIFICATION_TYPE":"U","NORAD_CAT_ID":58678,"ELEMENT_SET_NO":999,"REV_AT_EPOCH":10537,"BSTAR":-4.5557547e-5,"MEAN_MOTION_DOT":-1.515e-5,"MEAN_MOTION_DDOT":0},{"OBJECT_NAME":"STARLINK-31110","OBJECT_ID":"2023-211N","EPOCH":"2025-11-10T06:36:08.478432","MEAN_MOTION":15.27561586,"ECCENTRICITY":0.00010285,"INCLINATION":42.9968,"RA_OF_ASC_NODE":39.5044,"ARG_OF_PERICENTER":286.1255,"MEAN_ANOMALY":73.9483,"EPHEMERIS_TYPE":0,"CLASSIFICATION_TYPE":"U","NORAD_CAT_ID":58679,"ELEMENT_SET_NO":999,"REV_AT_EPOCH":10420,"BSTAR":0.00016957175,"MEAN_MOTION_DOT":4.405e-5,"MEAN_MOTION_DDOT":0},{"OBJECT_NAME":"STARLINK-31112","OBJECT_ID":"2023-211P","EPOCH":"2025-11-10T13:03:51.725088","MEAN_MOTION":15.27589981,"ECCENTRICITY":0.00018517,"INCLINATION":43.003,"RA_OF_ASC_NODE":38.0849,"ARG_OF_PERICENTER":281.8586,"MEAN_ANOMALY":78.2058,"EPHEMERIS_TYPE":0,"CLASSIFICATION_TYPE":"U","NORAD_CAT_ID":58680,"ELEMENT_SET_NO":999,"REV_AT_EPOCH":10542,"BSTAR":0.00020867643,"MEAN_MOTION_DOT":5.486e-5,"MEAN_MOTION_DDOT":0},{"OBJECT_NAME":"STARLINK-31147","OBJECT_ID":"2023-211Q","EPOCH":"2025-11-10T05:35:17.299968","MEAN_MOTION":15.27583617,"ECCENTRICITY":9.753e-5,"INCLINATION":43.0013,"RA_OF_ASC_NODE":40.0481,"ARG_OF_PERICENTER":352.551,"MEAN_ANOMALY":7.5327,"EPHEMERIS_TYPE":0,"CLASSIFICATION_TYPE":"U","NORAD_CAT_ID":58681,"ELEMENT_SET_NO":999,"REV_AT_EPOCH":10419,"BSTAR":3.8730769e-5,"MEAN_MOTION_DOT":8.04e-6,"MEAN_MOTION_DDOT":0}]
